[{"OBJECT_NAME":"KUIPER-00047","OBJECT_ID":"2025-134H","EPOCH":"2026-03-09T17:02:43.762272","MEAN_MOTION":14.77289918,"ECCENTRICITY":0.00023388,"INCLINATION":51.8995,"RA_OF_ASC_NODE":215.7529,"ARG_OF_PERICENTER":138.6205,"MEAN_ANOMALY":221.4934,"EPHEMERIS_TYPE":0,"CLASSIFICATION_TYPE":"U","NORAD_CAT_ID":64507,"ELEMENT_SET_NO":999,"REV_AT_EPOCH":4031,"BSTAR":0.00073016409,"MEAN_MOTION_DOT":5.016e-5,"MEAN_MOTION_DDOT":0},{"OBJECT_NAME":"THOR AGENA B DEB","OBJECT_ID":"1965-098F","EPOCH":"2026-03-09T22:45:15.729408","MEAN_MOTION":13.60223409,"ECCENTRICITY":0.07538154,"INCLINATION":79.8484,"RA_OF_ASC_NODE":20.4001,"ARG_OF_PERICENTER":143.1562,"MEAN_ANOMALY":222.3913,"EPHEMERIS_TYPE":0,"CLASSIFICATION_TYPE":"U","NORAD_CAT_ID":1948,"ELEMENT_SET_NO":999,"REV_AT_EPOCH":79567,"BSTAR":0.00090419941,"MEAN_MOTION_DOT":4.962e-5,"MEAN_MOTION_DDOT":0}]
